OBJECT_NAME,OBJECT_ID,EPOCH,MEAN_MOTION,ECCENTRICITY,INCLINATION,RA_OF_ASC_NODE,ARG_OF_PERICENTER,MEAN_ANOMALY,EPHEMERIS_TYPE,CLASSIFICATION_TYPE,NORAD_CAT_ID,ELEMENT_SET_NO,REV_AT_EPOCH,BSTAR,MEAN_MOTION_DOT,MEAN_MOTION_DDOT
STARLINK-38055,2026-147A,2026-07-01T14:00:01.999872,15.99908176,.00009133,97.2835,218.1166,73.0494,279.6831,0,U,69704,999,156,-.43356097E-2,-.2161025E-1,.1380661E-2
STARLINK-37898,2026-147B,2026-07-01T14:00:01.999872,16.00120170,.00008965,97.2834,218.1169,74.2787,279.0352,0,U,69705,999,156,-.44241359E-2,-.2231194E-1,.14728027E-2
STARLINK-37970,2026-147C,2026-07-01T14:00:01.999872,16.00245195,.00008043,97.2835,218.1170,73.4890,280.4912,0,U,69706,999,156,-.43048326E-2,-.2186765E-1,.14185459E-2
STARLINK-37975,2026-147D,2026-07-01T14:00:01.999872,16.00417150,.00006041,97.2833,218.1175,91.3645,263.2609,0,U,69707,999,156,-.42813999E-2,-.219609E-1,.14333602E-2
STARLINK-37972,2026-147E,2026-07-01T14:00:01.999872,16.00566124,.00005746,97.2834,218.1176,96.5637,258.7299,0,U,69708,999,156,-.42067838E-2,-.2176327E-1,.14110416E-2
STARLINK-37963,2026-147F,2026-07-01T14:00:01.999872,16.00700661,.0000779,97.2834,218.1177,75.3295,280.6248,0,U,69709,999,156,-.41215432E-2,-.214889E-1,.13790895E-2
STARLINK-37969,2026-147G,2026-07-01T14:00:01.999872,16.00859853,.00006265,97.2832,218.1180,82.0242,274.5866,0,U,69710,999,170,-.40733234E-2,-.2143158E-1,.13746913E-2
STARLINK-37956,2026-147H,2026-07-01T14:00:01.999872,16.00957659,.00006178,97.2831,218.1183,82.2432,274.9329,0,U,69711,999,156,-.40047325E-2,-.2119084E-1,.13466338E-2
STARLINK-38043,2026-147J,2026-07-01T14:00:01.999872,16.01125686,.00011685,97.2830,218.1183,90.6640,267.1462,0,U,69712,999,156,-.39986787E-2,-.2136324E-1,.13707482E-2
STARLINK-38020,2026-147K,2026-07-01T14:00:01.999872,16.01272902,.00010792,97.2830,218.1186,93.1521,265.3275,0,U,69713,999,156,-.39395222E-2,-.2122666E-1,.13563368E-2
STARLINK-38059,2026-147L,2026-07-01T14:00:01.999872,16.01398197,.00010041,97.2830,218.1189,90.4544,268.6405,0,U,69714,999,156,-.39048374E-2,-.2119199E-1,.13541745E-2
STARLINK-38061,2026-147M,2026-07-01T14:00:01.999872,16.01530402,.00010078,97.2829,218.1191,94.4789,265.2405,0,U,69715,999,165,-.38359059E-2,-.209788E-1,.13301767E-2
STARLINK-38060,2026-147N,2026-07-01T14:00:01.999872,16.01650498,.00009819,97.2829,218.1194,94.4138,265.9166,0,U,69716,999,165,-.37839907E-2,-.2083987E-1,.13152044E-2
STARLINK-38040,2026-147P,2026-07-01T14:00:01.999872,16.01747808,.00009427,97.2830,218.1198,94.2240,266.7025,0,U,69717,999,165,-.37075832E-2,-.2053675E-1,.12801642E-2
STARLINK-37989,2026-147Q,2026-07-01T14:00:01.999872,16.01841371,.00016844,97.2830,218.1198,78.9603,282.6557,0,U,69718,999,165,-.35594357E-2,-.198321E-1,.11986497E-2
STARLINK-38039,2026-147R,2026-07-01T14:00:01.999872,16.01960500,.00015537,97.2829,218.1201,78.3463,283.8823,0,U,69719,999,165,-.35179731E-2,-.1973719E-1,.11894501E-2
STARLINK-38003,2026-147S,2026-07-01T14:00:01.999872,16.02119591,.00012743,97.2829,218.1205,87.9289,274.9876,0,U,69720,999,165,-.34756784E-2,-.196803E-1,.11852237E-2
STARLINK-38014,2026-147T,2026-07-01T14:00:01.999872,16.02224245,.00011902,97.2828,218.1207,86.4581,277.0214,0,U,69721,999,165,-.34425997E-2,-.1961232E-1,.11789362E-2
STARLINK-37915,2026-147U,2026-07-01T14:00:01.999872,16.02384313,.00008451,97.2829,218.1210,89.6028,274.5419,0,U,69722,999,165,-.34183326E-2,-.1965507E-1,.11861954E-2
STARLINK-38007,2026-147V,2026-07-01T14:00:01.999872,16.02457048,.00007628,97.2828,218.1210,95.8247,268.9408,0,U,69723,999,165,-.33131337E-2,-.1913626E-1,.11281938E-2
STARLINK-38008,2026-147W,2026-07-01T14:00:01.999872,16.02563503,.00008794,97.2829,218.1215,99.4768,265.8351,0,U,69724,999,165,-.32878611E-2,-.1910913E-1,.11266251E-2
STARLINK-38021,2026-147X,2026-07-01T14:00:01.999872,16.02708536,.00007211,97.2828,218.1220,106.6120,259.6210,0,U,69725,999,165,-.32492594E-2,-.1904591E-1,.11215425E-2
STARLINK-38015,2026-147Y,2026-07-01T14:00:01.999872,16.02789969,.00005061,97.2828,218.1223,296.3816,70.7313,0,U,69726,999,165,-.35343886E-2,-.2079838E-1,.13291278E-2
STARLINK-38010,2026-147Z,2026-07-01T14:00:01.999872,16.02819500,.00011354,97.2828,218.1226,82.6906,284.9895,0,U,69727,999,165,-.31942231E-2,-.1884835E-1,.11010271E-2
SXM-11,2026-148A,2026-06-30T04:56:56.929344,4.17314436,.59517433,26.9898,145.6743,175.4619,194.4436,0,U,69728,999,5,.24372355E-3,.4494E-4,0
