STARLINK-38055          
1 69704U 26147A   26182.58335648 -.02161025  13807-2 -43356-2 0  9990
2 69704  97.2835 218.1166 0000913  73.0494 279.6831 15.99908176  1560
STARLINK-37898          
1 69705U 26147B   26182.58335648 -.02231194  14728-2 -44241-2 0  9993
2 69705  97.2834 218.1169 0000896  74.2787 279.0352 16.00120170  1566
STARLINK-37970          
1 69706U 26147C   26182.58335648 -.02186765  14185-2 -43048-2 0  9998
2 69706  97.2835 218.1170 0000804  73.4890 280.4912 16.00245195  1568
STARLINK-37975          
1 69707U 26147D   26182.58335648 -.02196090  14334-2 -42814-2 0  9997
2 69707  97.2833 218.1175 0000604  91.3645 263.2609 16.00417150  1561
STARLINK-37972          
1 69708U 26147E   26182.58335648 -.02176327  14110-2 -42068-2 0  9992
2 69708  97.2834 218.1176 0000574  96.5637 258.7299 16.00566124  1568
STARLINK-37963          
1 69709U 26147F   26182.58335648 -.02148890  13791-2 -41215-2 0  9994
2 69709  97.2834 218.1177 0000779  75.3295 280.6248 16.00700661  1566
STARLINK-37969          
1 69710U 26147G   26182.58335648 -.02143158  13747-2 -40733-2 0  9993
2 69710  97.2832 218.1180 0000626  82.0242 274.5866 16.00859853  1700
STARLINK-37956          
1 69711U 26147H   26182.58335648 -.02119084  13466-2 -40047-2 0  9991
2 69711  97.2831 218.1183 0000617  82.2432 274.9329 16.00957659  1561
STARLINK-38043          
1 69712U 26147J   26182.58335648 -.02136324  13707-2 -39987-2 0  9997
2 69712  97.2830 218.1183 0001168  90.6640 267.1462 16.01125686  1567
STARLINK-38020          
1 69713U 26147K   26182.58335648 -.02122666  13563-2 -39395-2 0  9995
2 69713  97.2830 218.1186 0001079  93.1521 265.3275 16.01272902  1564
STARLINK-38059          
1 69714U 26147L   26182.58335648 -.02119199  13542-2 -39048-2 0  9995
2 69714  97.2830 218.1189 0001004  90.4544 268.6405 16.01398197  1567
STARLINK-38061          
1 69715U 26147M   26182.58335648 -.02097880  13302-2 -38359-2 0  9996
2 69715  97.2829 218.1191 0001007  94.4789 265.2405 16.01530402  1657
STARLINK-38060          
1 69716U 26147N   26182.58335648 -.02083987  13152-2 -37840-2 0  9997
2 69716  97.2829 218.1194 0000981  94.4138 265.9166 16.01650498  1658
STARLINK-38040          
1 69717U 26147P   26182.58335648 -.02053675  12802-2 -37076-2 0  9991
2 69717  97.2830 218.1198 0000942  94.2240 266.7025 16.01747808  1659
STARLINK-37989          
1 69718U 26147Q   26182.58335648 -.01983210  11986-2 -35594-2 0  9993
2 69718  97.2830 218.1198 0001684  78.9603 282.6557 16.01841371  1653
STARLINK-38039          
1 69719U 26147R   26182.58335648 -.01973719  11895-2 -35180-2 0  9997
2 69719  97.2829 218.1201 0001553  78.3463 283.8823 16.01960500  1655
STARLINK-38003          
1 69720U 26147S   26182.58335648 -.01968030  11852-2 -34757-2 0  9991
2 69720  97.2829 218.1205 0001274  87.9289 274.9876 16.02119591  1659
STARLINK-38014          
1 69721U 26147T   26182.58335648 -.01961232  11789-2 -34426-2 0  9991
2 69721  97.2828 218.1207 0001190  86.4581 277.0214 16.02224245  1650
STARLINK-37915          
1 69722U 26147U   26182.58335648 -.01965507  11862-2 -34183-2 0  9993
2 69722  97.2829 218.1210 0000845  89.6028 274.5419 16.02384313  1655
STARLINK-38007          
1 69723U 26147V   26182.58335648 -.01913626  11282-2 -33131-2 0  9997
2 69723  97.2828 218.1210 0000762  95.8247 268.9408 16.02457048  1656
STARLINK-38008          
1 69724U 26147W   26182.58335648 -.01910913  11266-2 -32879-2 0  9994
2 69724  97.2829 218.1215 0000879  99.4768 265.8351 16.02563503  1657
STARLINK-38021          
1 69725U 26147X   26182.58335648 -.01904591  11215-2 -32493-2 0  9996
2 69725  97.2828 218.1220 0000721 106.6120 259.6210 16.02708536  1654
STARLINK-38015          
1 69726U 26147Y   26182.58335648 -.02079838  13291-2 -35344-2 0  9999
2 69726  97.2828 218.1223 0000506 296.3816  70.7313 16.02789969  1653
STARLINK-38010          
1 69727U 26147Z   26182.58335648 -.01884835  11010-2 -31942-2 0  9997
2 69727  97.2828 218.1226 0001135  82.6906 284.9895 16.02819500  1651
SXM-11                  
1 69728U 26148A   26181.20621446  .00004494  00000+0  24372-3 0  9997
2 69728  26.9898 145.6743 5951743 175.4619 194.4436  4.17314436    52
